GLOBALSTAR M084         
1 38040U 11080A   24181.95024628 -.00000093  00000+0  61048-4 0  9992
2 38040  52.0023  40.8110 0000941  58.8016  48.7429 12.62263873578188
GLOBALSTAR M080         
1 38041U 11080B   24182.09520802 -.00000086  00000+0  98838-4 0  9993
2 38041  52.0075  41.8522 0000786  45.1697 121.8534 12.62262394578463
GLOBALSTAR M082         
1 38042U 11080C   24182.55628338 -.00000093  00000+0  60320-4 0  9991
2 38042  52.0092 355.8588 0001348 113.1820 289.4384 12.62270735579263
GLOBALSTAR M092         
1 38043U 11080D   24182.48000745 -.00000105  00000+0 -82925-5 0  9991
2 38043  52.0090  86.4468 0000778  54.4483 122.0784 12.62263051577744
GLOBALSTAR M090         
1 38044U 11080E   24181.80466701 -.00000092  00000+0  65654-4 0  9998
2 38044  51.9905 352.4096 0001031 108.7144 356.6434 12.62264374579110
GLOBALSTAR M086         
1 38045U 11080F   24182.44500294 -.00000086  00000+0  10151-3 0  9990
2 38045  51.9914 350.9819 0000311 189.8548 187.5315 12.62263783579241
GLOBALSTAR M097         
1 39072U 13005A   24182.15145387 -.00000093  00000+0  57861-4 0  9994
2 39072  52.0046 266.0707 0000653 156.6787 203.4109 12.62263985526435
GLOBALSTAR M093         
1 39073U 13005B   24181.64964431 -.00000077  00000+0  14702-3 0  9995
2 39073  51.9808 261.4637 0000718 169.7642 190.3239 12.62275586526245
